CRE (WAAS/PRN 138)      
1 28868U 05036A   22316.15708417 -.00000064  00000+0  00000+0 0  9992
2 28868   0.9318  92.1873 0001355 104.0437 164.2870  1.00271555 62998
IOR-W (EGNOS/PRN 126)   
1 28899U 05044A   22316.45742747  .00000020  00000+0  00000+0 0  9993
2 28899   3.6181  38.6508 0003137 203.3433  38.1517  1.00271585 62337
QZS-1 (QZSS/PRN 183)    
1 37158U 10045A   22315.82807568 -.00000106  00000+0  00000+0 0  9997
2 37158  42.4900 131.3540 0749901 270.3181  85.4030  1.00272200 44545
GSAT-8 (GAGAN/PRN 127)  
1 37605U 11022A   22316.02340985  .00000094  00000+0  00000+0 0  9993
2 37605   0.0629  95.9776 0008222 159.1980 219.5036  1.00271862 42076
LUCH 5A (SDCM/PRN 140)  
1 37951U 11074B   22316.25027214 -.00000038  00000+0  00000+0 0  9995
2 37951   5.3882  94.8884 0003261 117.5860  95.8603  1.00270412 40028
SES-5 (EGNOS/PRN 136)   
1 38652U 12036A   22315.84979851  .00000043  00000+0  00000+0 0  9995
2 38652   0.0573 293.0604 0002160 303.5232 125.3098  1.00271667 31318
GSAT-10 (GAGAN/PRN 128) 
1 38779U 12051B   22316.01230118 -.00000156  00000+0  00000+0 0  9994
2 38779   0.0612  98.5151 0004287 157.2835 242.7859  1.00272661 37121
LUCH 5B (SDCM/PRN 125)  
1 38977U 12061A   22316.01716141 -.00000127  00000+0  00000+0 0  9998
2 38977   7.6095  61.4784 0004382 117.0173 222.4644  1.00270444 37006
ASTRA 5B (EGNOS/PRN 123)
1 39617U 14011B   22316.09771750  .00000164  00000+0  00000+0 0  9992
2 39617   0.0538 312.5346 0004188 274.0650 251.3331  1.00271703 31703
LUCH 5V (SDCM/PRN 141)  
1 39727U 14023A   22316.53535292 -.00000259  00000+0  00000+0 0  9991
2 39727   1.8510  76.7993 0003330 177.2645  85.1003  1.00272724549344
GSAT-15 (GAGAN/PRN 139) 
1 41028U 15065A   22315.53729934 -.00000249  00000+0  00000+0 0  9991
2 41028   0.0094 254.2002 0002445 311.5582 131.8508  1.00273104 25635
E 117 W B (WAAS/PRN 131)
1 41589U 16038B   22314.81737255 -.00000003  00000+0  00000+0 0  9997
2 41589   0.0136 134.3365 0000346 324.4495 128.4489  1.00271509 23521
SES-15 (WAAS/PRN 133)   
1 42709U 17026A   22316.50631215  .00000070  00000+0  00000+0 0  9990
2 42709   0.0228   1.2659 0000542 247.4890 215.9881  1.00268277 21026
QZS-2 (QZSS/PRN 184)    
1 42738U 17028A   22316.21114539 -.00000216  00000+0  00000+0 0  9990
2 42738  41.5314 262.0775 0764223 269.0358  94.4525  1.00295765 19970
QZS-3 (QZSS/PRN 189)    
1 42917U 17048A   22316.10674319 -.00000338  00000+0  00000+0 0  9991
2 42917   0.0540 197.9630 0002330  53.1350 325.6000  1.00270753 19207
QZS-4 (QZSS/PRN 185)    
1 42965U 17062A   22315.71585465 -.00000342  00000+0  00000+0 0  9994
2 42965  40.7317   0.2311 0750830 270.6616 176.0248  1.00266614 18641
GALAXY 30 (WAAS/PRN 135)
1 46114U 20056C   22316.24093053  .00000046  00000+0  00000+0 0  9997
2 46114   0.0155 286.7311 0002358 299.9697 146.4203  1.00272653  8235
